{
  "type": "FeatureCollection",
  "features": [
    {
      "type": "Feature",
      "properties": {
        "norad_id": 42988,
        "name": "SKYSAT-C10",
        "group": "resource",
        "lat": 55.17771666800673,
        "lon": 97.22367704408691,
        "alt_km": 463.093065946814,
        "timestamp": "2025-12-03T04:52:29.298974+00:00",
        "meta_object_name": "SKYSAT-C10",
        "meta_object_id": "2017-068B",
        "meta_epoch": "2025-12-02T19:13:33.649824",
        "meta_mean_motion": 15.31968347,
        "meta_eccentricity": 0.0005481,
        "meta_inclination": 97.4252,
        "meta_ra_of_asc_node": 107.627,
        "meta_arg_of_pericenter": 121.9495,
        "meta_mean_anomaly": 238.228,
        "meta_ephemeris_type": 0,
        "meta_classification_type": "U",
        "meta_norad_cat_id": 42988,
        "meta_element_set_no": 999,
        "meta_rev_at_epoch": 45227,
        "meta_bstar": 0.00047679,
        "meta_mean_motion_dot": 0.00014656,
        "meta_mean_motion_ddot": 0,
        "tle_line1": "1 42988U 17068B   25336.80108391  .00014656  00000+0  47679-3 0  9999",
        "tle_line2": "2 42988  97.4252 107.6270 0005481 121.9495 238.2280 15.31968347452276"
      },
      "geometry": {
        "type": "Point",
        "coordinates": [
          97.22367704408691,
          55.17771666800673
        ]
      }
    },
    {
      "type": "Feature",
      "properties": {
        "norad_id": 42989,
        "name": "SKYSAT-C9",
        "group": "resource",
        "lat": 50.68259644610842,
        "lon": -63.46166576403519,
        "alt_km": 447.19668662830736,
        "timestamp": "2025-12-03T04:52:29.298984+00:00",
        "meta_object_name": "SKYSAT-C9",
        "meta_object_id": "2017-068C",
        "meta_epoch": "2025-12-02T20:29:51.712800",
        "meta_mean_motion": 15.35646888,
        "meta_eccentricity": 0.0010639,
        "meta_inclination": 97.4179,
        "meta_ra_of_asc_node": 107.0333,
        "meta_arg_of_pericenter": 119.9462,
        "meta_mean_anomaly": 240.2839,
        "meta_ephemeris_type": 0,
        "meta_classification_type": "U",
        "meta_norad_cat_id": 42989,
        "meta_element_set_no": 999,
        "meta_rev_at_epoch": 45256,
        "meta_bstar": 0.0004976,
        "meta_mean_motion_dot": 0.00017214,
        "meta_mean_motion_ddot": 0,
        "tle_line1": "1 42989U 17068C   25336.85407075  .00017214  00000+0  49760-3 0  9992",
        "tle_line2": "2 42989  97.4179 107.0333 0010639 119.9462 240.2839 15.35646888452563"
      },
      "geometry": {
        "type": "Point",
        "coordinates": [
          -63.46166576403519,
          50.68259644610842
        ]
      }
    },
    {
      "type": "Feature",
      "properties": {
        "norad_id": 42990,
        "name": "SKYSAT-C8",
        "group": "resource",
        "lat": -25.72554395093111,
        "lon": -76.43922437794707,
        "alt_km": 475.32562853052696,
        "timestamp": "2025-12-03T04:52:29.298994+00:00",
        "meta_object_name": "SKYSAT-C8",
        "meta_object_id": "2017-068D",
        "meta_epoch": "2025-12-02T18:34:38.624160",
        "meta_mean_motion": 15.32573137,
        "meta_eccentricity": 0.0002164,
        "meta_inclination": 97.4273,
        "meta_ra_of_asc_node": 106.7339,
        "meta_arg_of_pericenter": 21.9121,
        "meta_mean_anomaly": 338.2213,
        "meta_ephemeris_type": 0,
        "meta_classification_type": "U",
        "meta_norad_cat_id": 42990,
        "meta_element_set_no": 999,
        "meta_rev_at_epoch": 45218,
        "meta_bstar": 0.00048674,
        "meta_mean_motion_dot": 0.00015245,
        "meta_mean_motion_ddot": 0,
        "tle_line1": "1 42990U 17068D   25336.77405815  .00015245  00000+0  48674-3 0  9990",
        "tle_line2": "2 42990  97.4273 106.7339 0002164  21.9121 338.2213 15.32573137452185"
      },
      "geometry": {
        "type": "Point",
        "coordinates": [
          -76.43922437794707,
          -25.72554395093111
        ]
      }
    },
    {
      "type": "Feature",
      "properties": {
        "norad_id": 42991,
        "name": "SKYSAT-C7",
        "group": "resource",
        "lat": 78.77362267212673,
        "lon": 67.11801212419972,
        "alt_km": 457.18146647826416,
        "timestamp": "2025-12-03T04:52:29.299004+00:00",
        "meta_object_name": "SKYSAT-C7",
        "meta_object_id": "2017-068E",
        "meta_epoch": "2025-12-02T19:06:53.457984",
        "meta_mean_motion": 15.31982094,
        "meta_eccentricity": 0.0007856,
        "meta_inclination": 97.428,
        "meta_ra_of_asc_node": 107.8056,
        "meta_arg_of_pericenter": 87.9943,
        "meta_mean_anomaly": 272.2199,
        "meta_ephemeris_type": 0,
        "meta_classification_type": "U",
        "meta_norad_cat_id": 42991,
        "meta_element_set_no": 999,
        "meta_rev_at_epoch": 45225,
        "meta_bstar": 0.00047328,
        "meta_mean_motion_dot": 0.00014561,
        "meta_mean_motion_ddot": 0,
        "tle_line1": "1 42991U 17068E   25336.79645206  .00014561  00000+0  47328-3 0  9998",
        "tle_line2": "2 42991  97.4280 107.8056 0007856  87.9943 272.2199 15.31982094452252"
      },
      "geometry": {
        "type": "Point",
        "coordinates": [
          67.11801212419972,
          78.77362267212673
        ]
      }
    },
    {
      "type": "Feature",
      "properties": {
        "norad_id": 42992,
        "name": "SKYSAT-C6",
        "group": "resource",
        "lat": -46.57439633837808,
        "lon": -79.26717815853688,
        "alt_km": 480.78627404078816,
        "timestamp": "2025-12-03T04:52:29.299015+00:00",
        "meta_object_name": "SKYSAT-C6",
        "meta_object_id": "2017-068F",
        "meta_epoch": "2025-12-02T20:02:40.619904",
        "meta_mean_motion": 15.3116287,
        "meta_eccentricity": 0.0005141,
        "meta_inclination": 97.4315,
        "meta_ra_of_asc_node": 108.2909,
        "meta_arg_of_pericenter": 110.7435,
        "meta_mean_anomaly": 249.4357,
        "meta_ephemeris_type": 0,
        "meta_classification_type": "U",
        "meta_norad_cat_id": 42992,
        "meta_element_set_no": 999,
        "meta_rev_at_epoch": 45224,
        "meta_bstar": 0.00046924,
        "meta_mean_motion_dot": 0.00014064,
        "meta_mean_motion_ddot": 0,
        "tle_line1": "1 42992U 17068F   25336.83519236  .00014064  00000+0  46924-3 0  9996",
        "tle_line2": "2 42992  97.4315 108.2909 0005141 110.7435 249.4357 15.31162870452243"
      },
      "geometry": {
        "type": "Point",
        "coordinates": [
          -79.26717815853688,
          -46.57439633837808
        ]
      }
    },
    {
      "type": "Feature",
      "properties": {
        "norad_id": 43111,
        "name": "CARTOSAT-2F",
        "group": "resource",
        "lat": 28.019843481592105,
        "lon": 31.010750683244627,
        "alt_km": 507.43818702603585,
        "timestamp": "2025-12-03T04:52:29.299025+00:00",
        "meta_object_name": "CARTOSAT-2F",
        "meta_object_id": "2018-004A",
        "meta_epoch": "2025-12-03T01:35:21.916032",
        "meta_mean_motion": 15.19340627,
        "meta_eccentricity": 0.0001105,
        "meta_inclination": 97.4331,
        "meta_ra_of_asc_node": 34.8599,
        "meta_arg_of_pericenter": 194.5597,
        "meta_mean_anomaly": 165.5606,
        "meta_ephemeris_type": 0,
        "meta_classification_type": "U",
        "meta_norad_cat_id": 43111,
        "meta_element_set_no": 999,
        "meta_rev_at_epoch": 43755,
        "meta_bstar": 6.7463e-05,
        "meta_mean_motion_dot": 1.358e-05,
        "meta_mean_motion_ddot": 0,
        "tle_line1": "1 43111U 18004A   25337.06622588  .00001358  00000+0  67463-4 0  9996",
        "tle_line2": "2 43111  97.4331  34.8599 0001105 194.5597 165.5606 15.19340627437555"
      },
      "geometry": {
        "type": "Point",
        "coordinates": [
          31.010750683244627,
          28.019843481592105
        ]
      }
    },
    {
      "type": "Feature",
      "properties": {
        "norad_id": 43259,
        "name": "GAOFEN-1 02",
        "group": "resource",
        "lat": -0.6078051262423332,
        "lon": -145.09826856394002,
        "alt_km": 643.4889749528593,
        "timestamp": "2025-12-03T04:52:29.299035+00:00",
        "meta_object_name": "GAOFEN-1 02",
        "meta_object_id": "2018-031A",
        "meta_epoch": "2025-12-02T21:33:13.364640",
        "meta_mean_motion": 14.76446302,
        "meta_eccentricity": 0.0001289,
        "meta_inclination": 98.0821,
        "meta_ra_of_asc_node": 34.6829,
        "meta_arg_of_pericenter": 261.14,
        "meta_mean_anomaly": 98.9663,
        "meta_ephemeris_type": 0,
        "meta_classification_type": "U",
        "meta_norad_cat_id": 43259,
        "meta_element_set_no": 999,
        "meta_rev_at_epoch": 41373,
        "meta_bstar": 0.00020017,
        "meta_mean_motion_dot": 1.341e-05,
        "meta_mean_motion_ddot": 0,
        "tle_line1": "1 43259U 18031A   25336.89807135  .00001341  00000+0  20017-3 0  9997",
        "tle_line2": "2 43259  98.0821  34.6829 0001289 261.1400  98.9663 14.76446302413735"
      },
      "geometry": {
        "type": "Point",
        "coordinates": [
          -145.09826856394002,
          -0.6078051262423332
        ]
      }
    }
  ]
}